[
  {
    "icaoId": "KPVU",
    "receiptTime": "2025-10-04T04:00:29.283Z",
    "obsTime": 1759550160,
    "reportTime": "2025-10-04T04:00:00.000Z",
    "temp": 20,
    "dewp": 6.7,
    "wdir": 180,
    "wspd": 6,
    "visib": 8,
    "altim": 1009.2,
    "slp": 1004.1,
    "qcField": 4,
    "metarType": "METAR",
    "rawOb": "METAR KPVU 040356Z 18006KT 8SM FEW080 SCT100 BKN120 20/07 A2980 RMK AO2 LTG DSNT E AND W AND NW SLP041 T02000067",
    "lat": 40.224,
    "lon": -111.7252,
    "elev": 1370,
    "name": "Provo Muni, UT, US",
    "cover": "BKN",
    "clouds": [
      {
        "cover": "FEW",
        "base": 8000
      },
      {
        "cover": "SCT",
        "base": 10000
      },
      {
        "cover": "BKN",
        "base": 12000
      }
    ],
    "fltCat": "VFR"
  },
  {
    "icaoId": "KSVR",
    "receiptTime": "2025-10-04T04:01:09.568Z",
    "obsTime": 1759550100,
    "reportTime": "2025-10-04T04:00:00.000Z",
    "temp": 16,
    "dewp": 11,
    "wdir": 10,
    "wspd": 10,
    "visib": "10+",
    "altim": 1010.6,
    "qcField": 6,
    "metarType": "METAR",
    "rawOb": "METAR KSVR 040355Z AUTO 01010KT 10SM SCT033 BKN055 OVC075 16/11 A2984 RMK AO2 LTG DSNT NE AND SE PRESRR",
    "lat": 40.6196,
    "lon": -111.9902,
    "elev": 4607,
    "name": "Salt Lake City/South Valley Rgnl, UT, US",
    "cover": "OVC",
    "clouds": [
      {
        "cover": "SCT",
        "base": 3300
      },
      {
        "cover": "BKN",
        "base": 5500
      },
      {
        "cover": "OVC",
        "base": 7500
      }
    ],
    "fltCat": "VFR"
  },
  {
    "icaoId": "KSLC",
    "receiptTime": "2025-10-04T03:58:32.315Z",
    "obsTime": 1759550040,
    "reportTime": "2025-10-04T04:00:00.000Z",
    "temp": 17.2,
    "dewp": 11.7,
    "wdir": 320,
    "wspd": 6,
    "visib": 7,
    "altim": 1009.9,
    "slp": 1005,
    "qcField": 12,
    "wxString": "VCTS RA",
    "precip": 0.05,
    "metarType": "METAR",
    "rawOb": "METAR KSLC 040354Z 32006KT 7SM VCTS RA FEW041 BKN080CB OVC100 17/12 A2982 RMK AO2 RAE16B45 SLP050 OCNL LTGCC S AND DSNT FRQ LTGCGCCCA ALQDS CB S MOV N AND DSNT ALQDS P0005 T01720117 $",
    "lat": 40.7707,
    "lon": -111.965,
    "elev": 1286,
    "name": "Salt Lake City Intl, UT, US",
    "cover": "OVC",
    "clouds": [
      {
        "cover": "FEW",
        "base": 4100
      },
      {
        "cover": "BKN",
        "base": 8000
      },
      {
        "cover": "OVC",
        "base": 10000
      }
    ],
    "fltCat": "VFR"
  },
  {
    "icaoId": "KLGU",
    "receiptTime": "2025-10-04T03:56:56.462Z",
    "obsTime": 1759549860,
    "reportTime": "2025-10-04T04:00:00.000Z",
    "temp": 14.4,
    "dewp": 10.6,
    "wdir": 360,
    "wspd": 7,
    "visib": "10+",
    "altim": 1011.6,
    "slp": 1008.6,
    "qcField": 6,
    "precip": 0.005,
    "metarType": "METAR",
    "rawOb": "METAR KLGU 040351Z AUTO 36007KT 10SM FEW100 SCT120 14/11 A2987 RMK AO2 RAE09 SLP086 P0000 T01440106",
    "lat": 41.7865,
    "lon": -111.8519,
    "elev": 1359,
    "name": "Logan/Cache Arpt, UT, US",
    "cover": "SCT",
    "clouds": [
      {
        "cover": "FEW",
        "base": 10000
      },
      {
        "cover": "SCT",
        "base": 12000
      }
    ],
    "fltCat": "VFR"
  }
]